{
  "type": "FeatureCollection",
  "features": [
    {
      "type": "Feature",
      "properties": {
        "norad_id": 34635,
        "name": "COSMOS 2251 DEB",
        "group": "cosmos-2251-debris",
        "lat": 6.6102839431148155,
        "lon": -115.13998673884963,
        "alt_km": 652.4745272010578,
        "timestamp": "2025-12-14T18:52:55.898199+00:00",
        "meta_object_name": "COSMOS 2251 DEB",
        "meta_object_id": "1993-036XG",
        "meta_epoch": "2025-12-13T23:16:43.933152",
        "meta_mean_motion": 14.6829351,
        "meta_eccentricity": 0.00283778,
        "meta_inclination": 74.046,
        "meta_ra_of_asc_node": 68.3375,
        "meta_arg_of_pericenter": 136.7016,
        "meta_mean_anomaly": 40.3635,
        "meta_ephemeris_type": 0,
        "meta_classification_type": "U",
        "meta_norad_cat_id": 34635,
        "meta_element_set_no": 999,
        "meta_rev_at_epoch": 73237,
        "meta_bstar": 0.0012979657,
        "meta_mean_motion_dot": 7.511e-05,
        "meta_mean_motion_ddot": 0,
        "tle_line1": "1 34635U 93036XG  25347.96995293  .00007511  00000+0  12980-2 0  9990",
        "tle_line2": "2 34635  74.0460  68.3375 0028377 136.7016  40.3635 14.68293510732379"
      },
      "geometry": {
        "type": "Point",
        "coordinates": [
          -115.13998673884963,
          6.6102839431148155
        ]
      }
    },
    {
      "type": "Feature",
      "properties": {
        "norad_id": 34637,
        "name": "COSMOS 2251 DEB",
        "group": "cosmos-2251-debris",
        "lat": -53.75675964893207,
        "lon": 74.2881064127002,
        "alt_km": 724.5604703417966,
        "timestamp": "2025-12-14T18:52:55.898209+00:00",
        "meta_object_name": "COSMOS 2251 DEB",
        "meta_object_id": "1993-036XJ",
        "meta_epoch": "2025-12-13T17:23:48.558912",
        "meta_mean_motion": 14.60111795,
        "meta_eccentricity": 0.00497065,
        "meta_inclination": 74.0488,
        "meta_ra_of_asc_node": 99.2774,
        "meta_arg_of_pericenter": 169.4954,
        "meta_mean_anomaly": 313.7055,
        "meta_ephemeris_type": 0,
        "meta_classification_type": "U",
        "meta_norad_cat_id": 34637,
        "meta_element_set_no": 999,
        "meta_rev_at_epoch": 88541,
        "meta_bstar": 0.0012293021,
        "meta_mean_motion_dot": 5.992e-05,
        "meta_mean_motion_ddot": 0,
        "tle_line1": "1 34637U 93036XJ  25347.72486758  .00005992  00000+0  12293-2 0  9995",
        "tle_line2": "2 34637  74.0488  99.2774 0049706 169.4954 313.7055 14.60111795885413"
      },
      "geometry": {
        "type": "Point",
        "coordinates": [
          74.2881064127002,
          -53.75675964893207
        ]
      }
    },
    {
      "type": "Feature",
      "properties": {
        "norad_id": 34641,
        "name": "COSMOS 2251 DEB",
        "group": "cosmos-2251-debris",
        "lat": -50.85212863259505,
        "lon": -81.38673824941102,
        "alt_km": 731.7549429427172,
        "timestamp": "2025-12-14T18:52:55.898220+00:00",
        "meta_object_name": "COSMOS 2251 DEB",
        "meta_object_id": "1993-036XN",
        "meta_epoch": "2025-12-12T23:21:11.155392",
        "meta_mean_motion": 14.5200903,
        "meta_eccentricity": 0.00183078,
        "meta_inclination": 73.8388,
        "meta_ra_of_asc_node": 81.2019,
        "meta_arg_of_pericenter": 356.0596,
        "meta_mean_anomaly": 120.9423,
        "meta_ephemeris_type": 0,
        "meta_classification_type": "U",
        "meta_norad_cat_id": 34641,
        "meta_element_set_no": 999,
        "meta_rev_at_epoch": 88259,
        "meta_bstar": 0.0015585494,
        "meta_mean_motion_dot": 6.288e-05,
        "meta_mean_motion_ddot": 0,
        "tle_line1": "1 34641U 93036XN  25346.97304578  .00006288  00000+0  15585-2 0  9991",
        "tle_line2": "2 34641  73.8388  81.2019 0018307 356.0596 120.9423 14.52009030882598"
      },
      "geometry": {
        "type": "Point",
        "coordinates": [
          -81.38673824941102,
          -50.85212863259505
        ]
      }
    },
    {
      "type": "Feature",
      "properties": {
        "norad_id": 34642,
        "name": "COSMOS 2251 DEB",
        "group": "cosmos-2251-debris",
        "lat": -65.13673191429062,
        "lon": -61.98420964181951,
        "alt_km": 1006.5582763226366,
        "timestamp": "2025-12-14T18:52:55.898230+00:00",
        "meta_object_name": "COSMOS 2251 DEB",
        "meta_object_id": "1993-036XP",
        "meta_epoch": "2025-12-13T22:46:57.817056",
        "meta_mean_motion": 13.98978454,
        "meta_eccentricity": 0.02070757,
        "meta_inclination": 74.005,
        "meta_ra_of_asc_node": 337.7061,
        "meta_arg_of_pericenter": 157.2985,
        "meta_mean_anomaly": 234.1127,
        "meta_ephemeris_type": 0,
        "meta_classification_type": "U",
        "meta_norad_cat_id": 34642,
        "meta_element_set_no": 999,
        "meta_rev_at_epoch": 85310,
        "meta_bstar": 0.0011423534,
        "meta_mean_motion_dot": 1.96e-05,
        "meta_mean_motion_ddot": 0,
        "tle_line1": "1 34642U 93036XP  25347.94928029  .00001960  00000+0  11424-2 0  9993",
        "tle_line2": "2 34642  74.0050 337.7061 0207075 157.2985 234.1127 13.98978454853107"
      },
      "geometry": {
        "type": "Point",
        "coordinates": [
          -61.98420964181951,
          -65.13673191429062
        ]
      }
    },
    {
      "type": "Feature",
      "properties": {
        "norad_id": 34671,
        "name": "COSMOS 2251 DEB",
        "group": "cosmos-2251-debris",
        "lat": 73.87750779300798,
        "lon": -147.38560874216392,
        "alt_km": 667.6356230375304,
        "timestamp": "2025-12-14T18:52:55.898240+00:00",
        "meta_object_name": "COSMOS 2251 DEB",
        "meta_object_id": "1993-036XR",
        "meta_epoch": "2025-12-13T16:23:02.007168",
        "meta_mean_motion": 14.66962188,
        "meta_eccentricity": 0.00113721,
        "meta_inclination": 74.0266,
        "meta_ra_of_asc_node": 132.4755,
        "meta_arg_of_pericenter": 213.1789,
        "meta_mean_anomaly": 166.3535,
        "meta_ephemeris_type": 0,
        "meta_classification_type": "U",
        "meta_norad_cat_id": 34671,
        "meta_element_set_no": 999,
        "meta_rev_at_epoch": 88311,
        "meta_bstar": 0.0020282112,
        "meta_mean_motion_dot": 0.00011356,
        "meta_mean_motion_ddot": 0,
        "tle_line1": "1 34671U 93036XR  25347.68266212  .00011356  00000+0  20282-2 0  9997",
        "tle_line2": "2 34671  74.0266 132.4755 0011372 213.1789 166.3535 14.66962188883111"
      },
      "geometry": {
        "type": "Point",
        "coordinates": [
          -147.38560874216392,
          73.87750779300798
        ]
      }
    },
    {
      "type": "Feature",
      "properties": {
        "norad_id": 34672,
        "name": "COSMOS 2251 DEB",
        "group": "cosmos-2251-debris",
        "lat": 40.4738679123243,
        "lon": -44.029625305721744,
        "alt_km": 752.0936256570767,
        "timestamp": "2025-12-14T18:52:55.898250+00:00",
        "meta_object_name": "COSMOS 2251 DEB",
        "meta_object_id": "1993-036XS",
        "meta_epoch": "2025-12-11T16:16:44.249952",
        "meta_mean_motion": 14.36406242,
        "meta_eccentricity": 0.00236356,
        "meta_inclination": 74.0334,
        "meta_ra_of_asc_node": 307.539,
        "meta_arg_of_pericenter": 19.6523,
        "meta_mean_anomaly": 155.1005,
        "meta_ephemeris_type": 0,
        "meta_classification_type": "U",
        "meta_norad_cat_id": 34672,
        "meta_element_set_no": 999,
        "meta_rev_at_epoch": 65162,
        "meta_bstar": 0.00043649208,
        "meta_mean_motion_dot": 1.257e-05,
        "meta_mean_motion_ddot": 0,
        "tle_line1": "1 34672U 93036XS  25345.67828993  .00001257  00000+0  43649-3 0  9997",
        "tle_line2": "2 34672  74.0334 307.5390 0023635  19.6523 155.1005 14.36406242651626"
      },
      "geometry": {
        "type": "Point",
        "coordinates": [
          -44.029625305721744,
          40.4738679123243
        ]
      }
    },
    {
      "type": "Feature",
      "properties": {
        "norad_id": 34678,
        "name": "COSMOS 2251 DEB",
        "group": "cosmos-2251-debris",
        "lat": 0.9945131100471428,
        "lon": -178.31254607480184,
        "alt_km": 804.8300705811816,
        "timestamp": "2025-12-14T18:52:55.898261+00:00",
        "meta_object_name": "COSMOS 2251 DEB",
        "meta_object_id": "1993-036XY",
        "meta_epoch": "2025-12-13T19:23:14.809056",
        "meta_mean_motion": 14.30065245,
        "meta_eccentricity": 0.00244409,
        "meta_inclination": 74.0378,
        "meta_ra_of_asc_node": 3.7511,
        "meta_arg_of_pericenter": 52.5272,
        "meta_mean_anomaly": 128.2661,
        "meta_ephemeris_type": 0,
        "meta_classification_type": "U",
        "meta_norad_cat_id": 34678,
        "meta_element_set_no": 999,
        "meta_rev_at_epoch": 87394,
        "meta_bstar": 4.6042709e-05,
        "meta_mean_motion_dot": 9.4e-07,
        "meta_mean_motion_ddot": 0,
        "tle_line1": "1 34678U 93036XY  25347.80781029  .00000094  00000+0  46043-4 0  9998",
        "tle_line2": "2 34678  74.0378   3.7511 0024440  52.5272 128.2661 14.30065245873940"
      },
      "geometry": {
        "type": "Point",
        "coordinates": [
          -178.31254607480184,
          0.9945131100471428
        ]
      }
    }
  ]
}